{
  "tilejson": "3.0.0",
  "scheme": "xyz",
  "tiles": [
    "https://tiles.vatsim-radar.com/tiles-250622/{z}/{x}/{y}.mvt"
  ],
  "vector_layers": [
    {
      "id": "boundaries",
      "fields": {
        "brk_a3": "String",
        "disputed": "Boolean",
        "kind": "String",
        "kind_detail": "Number",
        "sort_rank": "Number"
      },
      "minzoom": 0,
      "maxzoom": 15
    },
    {
      "id": "buildings",
      "fields": {
        "height": "Number",
        "kind": "String",
        "kind_detail": "String",
        "layer": "Number",
        "min_height": "Number",
        "sort_rank": "Number"
      },
      "minzoom": 11,
      "maxzoom": 15
    },
    {
      "id": "earth",
      "fields": {
        "kind": "String",
        "min_zoom": "Number",
        "name": "String",
        "name2": "String",
        "name:ar": "String",
        "name:bg": "String",
        "name:cs": "String",
        "name:da": "String",
        "name:de": "String",
        "name:el": "String",
        "name:en": "String",
        "name:es": "String",
        "name:et": "String",
        "name:fa": "String",
        "name:fi": "String",
        "name:fr": "String",
        "name:ga": "String",
        "name:he": "String",
        "name:hr": "String",
        "name:hu": "String",
        "name:id": "String",
        "name:it": "String",
        "name:ja": "String",
        "name:ko": "String",
        "name:lt": "String",
        "name:lv": "String",
        "name:nl": "String",
        "name:no": "String",
        "name:pl": "String",
        "name:pt": "String",
        "name:ro": "String",
        "name:ru": "String",
        "name:sk": "String",
        "name:sl": "String",
        "name:sv": "String",
        "name:tr": "String",
        "name:uk": "String",
        "name:ur": "String",
        "name:vi": "String",
        "name:zh-Hans": "String",
        "name:zh-Hant": "String",
        "pgf:name2": "String",
        "script": "String",
        "script2": "String"
      },
      "minzoom": 0,
      "maxzoom": 15
    },
    {
      "id": "landcover",
      "fields": {
        "kind": "String"
      },
      "minzoom": 0,
      "maxzoom": 7
    },
    {
      "id": "landuse",
      "fields": {
        "kind": "String",
        "sort_rank": "Number"
      },
      "minzoom": 2,
      "maxzoom": 15
    },
    {
      "id": "places",
      "fields": {
        "capital": "String",
        "kind": "String",
        "kind_detail": "String",
        "min_zoom": "Number",
        "name": "String",
        "name2": "String",
        "name3": "String",
        "name:ar": "String",
        "name:bg": "String",
        "name:cs": "String",
        "name:da": "String",
        "name:de": "String",
        "name:el": "String",
        "name:en": "String",
        "name:es": "String",
        "name:et": "String",
        "name:fa": "String",
        "name:fi": "String",
        "name:fr": "String",
        "name:ga": "String",
        "name:he": "String",
        "name:hi": "String",
        "name:hr": "String",
        "name:hu": "String",
        "name:id": "String",
        "name:it": "String",
        "name:ja": "String",
        "name:ko": "String",
        "name:lt": "String",
        "name:lv": "String",
        "name:mr": "String",
        "name:mt": "String",
        "name:ne": "String",
        "name:nl": "String",
        "name:no": "String",
        "name:pl": "String",
        "name:pt": "String",
        "name:ro": "String",
        "name:ru": "String",
        "name:sk": "String",
        "name:sl": "String",
        "name:sv": "String",
        "name:tr": "String",
        "name:uk": "String",
        "name:ur": "String",
        "name:vi": "String",
        "name:zh-Hans": "String",
        "name:zh-Hant": "String",
        "pgf:name": "String",
        "pgf:name2": "String",
        "pgf:name:en": "String",
        "pgf:name:hi": "String",
        "pgf:name:mr": "String",
        "pgf:name:ne": "String",
        "population": "Number",
        "population_rank": "Number",
        "ref": "String",
        "ref:FR:FANTOIR": "String",
        "ref:FR:SIREN": "String",
        "ref:INSEE": "String",
        "ref:RS:nkd": "String",
        "ref:USCG": "String",
        "ref:USPS": "String",
        "ref:assessors_office": "String",
        "ref:catasto": "String",
        "ref:category": "String",
        "ref:en": "String",
        "ref:lzh": "String",
        "ref:nid": "String",
        "ref:ru": "String",
        "ref:se:pts:postort": "String",
        "ref:uk": "String",
        "ref:vi": "String",
        "ref:whc": "String",
        "ref:xpcc": "String",
        "ref:zh": "String",
        "ref:zh-Hans": "String",
        "ref:zh-Hant": "String",
        "script": "String",
        "script2": "String",
        "script3": "String",
        "wikidata": "String"
      },
      "minzoom": 0,
      "maxzoom": 15
    },
    {
      "id": "pois",
      "fields": {
        "elevation": "String",
        "iata": "String",
        "kind": "String",
        "kind_detail": "String",
        "min_zoom": "Number",
        "name": "String",
        "name2": "String",
        "name3": "String",
        "name:ar": "String",
        "name:bg": "String",
        "name:cs": "String",
        "name:da": "String",
        "name:de": "String",
        "name:el": "String",
        "name:en": "String",
        "name:es": "String",
        "name:et": "String",
        "name:fa": "String",
        "name:fi": "String",
        "name:fr": "String",
        "name:ga": "String",
        "name:he": "String",
        "name:hi": "String",
        "name:hr": "String",
        "name:hu": "String",
        "name:id": "String",
        "name:it": "String",
        "name:ja": "String",
        "name:ko": "String",
        "name:lt": "String",
        "name:lv": "String",
        "name:mr": "String",
        "name:mt": "String",
        "name:ne": "String",
        "name:nl": "String",
        "name:no": "String",
        "name:pl": "String",
        "name:pt": "String",
        "name:ro": "String",
        "name:ru": "String",
        "name:sk": "String",
        "name:sl": "String",
        "name:sv": "String",
        "name:tr": "String",
        "name:uk": "String",
        "name:ur": "String",
        "name:vi": "String",
        "name:zh-Hans": "String",
        "name:zh-Hant": "String",
        "pgf:name": "String",
        "pgf:name2": "String",
        "pgf:name3": "String",
        "pgf:name:en": "String",
        "pgf:name:he": "String",
        "pgf:name:hi": "String",
        "pgf:name:mr": "String",
        "pgf:name:ne": "String",
        "script": "String",
        "script2": "String",
        "script3": "String"
      },
      "minzoom": 5,
      "maxzoom": 15
    },
    {
      "id": "roads",
      "fields": {
        "is_bridge": "Boolean",
        "is_link": "Boolean",
        "is_tunnel": "Boolean",
        "kind": "String",
        "kind_detail": "String",
        "min_zoom": "Number",
        "name": "String",
        "name2": "String",
        "name3": "String",
        "name:ar": "String",
        "name:bg": "String",
        "name:cs": "String",
        "name:da": "String",
        "name:de": "String",
        "name:el": "String",
        "name:en": "String",
        "name:es": "String",
        "name:et": "String",
        "name:fa": "String",
        "name:fi": "String",
        "name:fr": "String",
        "name:ga": "String",
        "name:he": "String",
        "name:hi": "String",
        "name:hr": "String",
        "name:hu": "String",
        "name:id": "String",
        "name:it": "String",
        "name:ja": "String",
        "name:ko": "String",
        "name:lt": "String",
        "name:lv": "String",
        "name:mr": "String",
        "name:mt": "String",
        "name:ne": "String",
        "name:nl": "String",
        "name:no": "String",
        "name:pl": "String",
        "name:pt": "String",
        "name:ro": "String",
        "name:ru": "String",
        "name:sk": "String",
        "name:sl": "String",
        "name:sv": "String",
        "name:tr": "String",
        "name:uk": "String",
        "name:ur": "String",
        "name:vi": "String",
        "name:zh-Hans": "String",
        "name:zh-Hant": "String",
        "network": "String",
        "oneway": "String",
        "pgf:name": "String",
        "pgf:name2": "String",
        "pgf:name:en": "String",
        "pgf:name:hi": "String",
        "pgf:name:mr": "String",
        "pgf:name:ne": "String",
        "ref": "String",
        "route": "String",
        "script": "String",
        "script2": "String",
        "script3": "String",
        "service": "String",
        "shield_text_length": "Number",
        "sort_rank": "Number"
      },
      "minzoom": 3,
      "maxzoom": 15
    },
    {
      "id": "water",
      "fields": {
        "alkaline": "Boolean",
        "bridge": "String",
        "intermittent": "Boolean",
        "kind": "String",
        "kind_detail": "String",
        "layer": "Number",
        "level": "Number",
        "min_zoom": "Number",
        "name": "String",
        "name2": "String",
        "name3": "String",
        "name:abb": "String",
        "name:alt": "String",
        "name:ar": "String",
        "name:bg": "String",
        "name:bn": "String",
        "name:cs": "String",
        "name:da": "String",
        "name:de": "String",
        "name:el": "String",
        "name:en": "String",
        "name:es": "String",
        "name:et": "String",
        "name:fa": "String",
        "name:fi": "String",
        "name:fr": "String",
        "name:ga": "String",
        "name:he": "String",
        "name:hi": "String",
        "name:hr": "String",
        "name:hu": "String",
        "name:id": "String",
        "name:it": "String",
        "name:ja": "String",
        "name:ko": "String",
        "name:lt": "String",
        "name:lv": "String",
        "name:mr": "String",
        "name:mt": "String",
        "name:ne": "String",
        "name:nl": "String",
        "name:no": "String",
        "name:pl": "String",
        "name:pt": "String",
        "name:ro": "String",
        "name:ru": "String",
        "name:sk": "String",
        "name:sl": "String",
        "name:sv": "String",
        "name:tr": "String",
        "name:uk": "String",
        "name:ur": "String",
        "name:vi": "String",
        "name:zh": "String",
        "name:zh-Hans": "String",
        "name:zh-Hant": "String",
        "name:zht": "String",
        "pgf:name": "String",
        "pgf:name2": "String",
        "pgf:name:en": "String",
        "pgf:name:hi": "String",
        "pgf:name:mr": "String",
        "pgf:name:ne": "String",
        "reservoir": "Boolean",
        "script": "String",
        "script2": "String",
        "script3": "String",
        "sort_rank": "Number",
        "tunnel": "String"
      },
      "minzoom": 0,
      "maxzoom": 15
    }
  ],
  "description": "Basemap layers derived from OpenStreetMap and Natural Earth",
  "name": "Protomaps Basemap",
  "version": "4.1.0",
  "bounds": [-180, -85.0511287, 180, 85.0511287],
  "center": [0, 0, 0],
  "minzoom": 0,
  "maxzoom": 15
}
